#aV2008  9 25  0  0   .00000000      96 DD+AD WGS84 FIT  NGA
## 1498 345600.00000000   900.00000000 54734  .0000000000000
+   31     2  3  4  5  6  7  8  9 10 11 12 13 14 15 16 17 18
+         19 20 21 22 23 24 25 26 27 28 29 30 31 32  0  0  0
+          0  0  0  0  0  0  0  0  0  0  0  0  0  0  0  0  0
+          0  0  0  0  0  0  0  0  0  0  0  0  0  0  0  0  0
+          0  0  0  0  0  0  0  0  0  0  0  0  0  0  0  0  0
++         0  0  0  0  0  0  0  0  0  0  0  0  0  0  0  0  0
++         0  0  0  0  0  0  0  0  0  0  0  0  0  0  0  0  0
++         0  0  0  0  0  0  0  0  0  0  0  0  0  0  0  0  0
++         0  0  0  0  0  0  0  0  0  0  0  0  0  0  0  0  0
++         0  0  0  0  0  0  0  0  0  0  0  0  0  0  0  0  0
%c cc cc ccc ccc cccc cccc cccc cccc ccccc ccccc ccccc ccccc
%c cc cc ccc ccc cccc cccc cccc cccc ccccc ccccc ccccc ccccc
%f  0.0000000  0.000000000  0.00000000000  0.000000000000000
%f  0.0000000  0.000000000  0.00000000000  0.000000000000000
%i    0    0    0    0      0      0      0      0         0
%i    0    0    0    0      0      0      0      0         0
/*      NGA, ST. LOUIS,MO.                                  
/*   EPHEMERIS COMPUTED FROM  3 DAYS OF DATA                
/* CCCCCCCCCCCCCCCCCCCCCCCCCCCCCCCCCCCCCCCCCCCCCCCCCCCCCCCCC
/* CCCCCCCCCCCCCCCCCCCCCCCCCCCCCCCCCCCCCCCCCCCCCCCCCCCCCCCCC
*  2008  9 25  8 30   .00000000                                                 
P  2  14137.405120   9225.939797 -20717.950009    184.847770                    
V  2  -3548.366241  25750.914645   8736.331449      -.028009                    
P  3 -24274.197705  -9822.253836   5182.130597    288.114869                    
V  3  -4146.236131  -6538.453133 -29818.951979       .051868                    
P  4   7701.777861  20999.686377 -14140.580376   -181.425228                    
V  4  -5035.824486  17478.648673  23756.070684      -.111872                    
P  5  20499.382046 -15876.859494  -5720.647270   -142.653085                    
V  5   7681.124077   -402.621243  30319.211857      -.954227                    
P  6 -22764.690313 -13526.818089   2260.161250    164.564512                    
V  6   -144.897559  -4500.075851 -30973.314735      -.025709                    
P  7  -7361.842907  24669.838790  -6346.205040     19.157703                    
V  7  -1716.454303  -8301.161291 -30507.636406       .019714                    
P  8    -33.218775  25447.601953   6565.667796   -171.508324                    
V  8  -3803.554577   7996.861865 -31131.925931      -.014370                    
P  9  13475.458173 -12987.637382  18155.292335     16.643327                    
V  9   -448.501393  24445.245742  17339.442005       .018642                    
P 10  22756.814977   1450.493517 -14027.535444     -5.261688                    
V 10 -15506.821657   8219.945521 -24225.727783      -.004702                    
P 11 -12903.827094  15013.706510  17390.432578     19.201876                    
V 11  -4709.212671 -22513.707520  16135.265503      -.007181                    
P 12  24231.959332 -10731.779745   -564.416746   -349.469665                    
V 12   1830.801449   2244.948963  31890.079143       .016932                    
P 13  -4442.912111  14674.236205 -21803.481395    272.199733                    
V 13 -21256.601533 -17158.998138  -7251.872610       .011452                    
P 14 -13544.208990 -20129.736382  11056.087427   -215.486558                    
V 14  11731.589635   7408.942317  28030.566226       .047277                    
P 15  21789.883165   2853.094554  14958.020542   -183.218046                    
V 15  14075.970419  12853.058455 -22981.172173      -.064531                    
P 16 -18852.157187  -5671.278586 -17869.128918    105.071850                    
V 16  20512.582593  -9859.518437 -18245.069245      -.021045                    
P 17  13072.149871  20198.692265  11482.451974     39.099993                    
V 17 -12847.587715  -7007.931032  26884.017267       .001552                    
P 18   9586.206110 -17397.841591  17655.760957   -130.225111                    
V 18  21443.981216  -6127.658309 -18255.560682       .040411                    
P 19 -21051.154201  -3248.950278  16071.790289     35.565817                    
V 19 -14096.056943 -14576.397770 -21301.572137       .000861                    
P 20 -22439.916607  13545.620344  -4291.796824    103.682899                    
V 20  -6200.060162   -780.970252  30797.033320      -.010622                    
P 21   4250.643656 -25855.576363   -778.131527     49.264979                    
V 21   3948.808935   1832.697879 -31562.126578      -.015103                    
P 22  -4399.099996 -15074.185598  21582.085074    210.775128                    
V 22  25374.548511  -9486.537122  -1527.780079      -.000651                    
P 23 -14306.696015   7376.493769 -21231.560034    374.437736                    
V 23 -21042.212898 -16510.831537   8201.683724       .013766                    
P 24  12931.847786 -18976.705163 -13419.684010    128.036714                    
V 24   -645.330853  17355.172685 -24597.588940       .030457                    
P 25  -9252.226952  21307.443266 -12683.097735   -129.386942                    
V 25  -1742.330022 -16646.903471 -25798.465288       .417576                    
P 26  22397.182884   9222.238004  10997.352897    330.518642                    
V 26  10359.884568  10225.219956 -27886.184681       .053393                    
P 27  -3453.597687  26034.570785  -2824.609969    220.195522                    
V 27  -2377.729816  -4573.572797 -31793.408773       .029963                    
P 28   2904.772240  15216.919759  21941.092566    -22.758681                    
V 28 -25210.491908   9528.854901  -3660.943306      -.002779                    
P 29   7688.240158 -13195.594638 -21621.693872    -36.612710                    
V 29  21960.298934  16912.982739  -2468.212991       .011790                    
P 30  14528.690766 -17771.042728 -13643.002572     98.480469                    
V 30  16205.174054  -5045.963129  24565.175414       .020006                    
P 31  -9078.746129 -18701.236824 -16263.278560    -28.530487                    
V 31   4221.758134 -20712.010542  21296.600013      -.023277                    
P 32 -25551.902495   6428.577402   2811.210129    316.515262                    
V 32   2046.422514  -3556.662923  31758.944557       .001652                    
EOF
